{
  "type": "FeatureCollection",
  "features": [
    {
      "type": "Feature",
      "properties": {
        "norad_id": 39617,
        "name": "ASTRA 5B (EGNOS/PRN 123)",
        "group": "gnss",
        "lat": 0.008861336033877149,
        "lon": 4.965976783017879,
        "alt_km": 35790.36328077427,
        "timestamp": "2025-12-20T16:47:36.528586+00:00",
        "meta_object_name": "ASTRA 5B (EGNOS/PRN 123)",
        "meta_object_id": "2014-011B",
        "meta_epoch": "2025-12-19T19:52:38.507808",
        "meta_mean_motion": 1.00270681,
        "meta_eccentricity": 0.0003845,
        "meta_inclination": 0.0429,
        "meta_ra_of_asc_node": 358.0682,
        "meta_arg_of_pericenter": 262.2755,
        "meta_mean_anomaly": 149.9909,
        "meta_ephemeris_type": 0,
        "meta_classification_type": "U",
        "meta_norad_cat_id": 39617,
        "meta_element_set_no": 999,
        "meta_rev_at_epoch": 4286,
        "meta_bstar": 0,
        "meta_mean_motion_dot": 1.61e-06,
        "meta_mean_motion_ddot": 0,
        "tle_line1": "1 39617U 14011B   25353.82822347  .00000161  00000+0  00000+0 0  9993",
        "tle_line2": "2 39617   0.0429 358.0682 0003845 262.2755 149.9909  1.00270681 42860"
      },
      "geometry": {
        "type": "Point",
        "coordinates": [
          4.965976783017879,
          0.008861336033877149
        ]
      }
    },
    {
      "type": "Feature",
      "properties": {
        "norad_id": 39620,
        "name": "COSMOS 2492 (754)",
        "group": "gnss",
        "lat": 55.73230986102827,
        "lon": 97.76218444009355,
        "alt_km": 19158.14141563255,
        "timestamp": "2025-12-20T16:47:36.528598+00:00",
        "meta_object_name": "COSMOS 2492 (754)",
        "meta_object_id": "2014-012A",
        "meta_epoch": "2025-12-20T01:56:38.014656",
        "meta_mean_motion": 2.13103387,
        "meta_eccentricity": 0.00142311,
        "meta_inclination": 65.4033,
        "meta_ra_of_asc_node": 320.0211,
        "meta_arg_of_pericenter": 312.7815,
        "meta_mean_anomaly": 47.0902,
        "meta_ephemeris_type": 0,
        "meta_classification_type": "U",
        "meta_norad_cat_id": 39620,
        "meta_element_set_no": 999,
        "meta_rev_at_epoch": 9142,
        "meta_bstar": 0,
        "meta_mean_motion_dot": -5.4e-07,
        "meta_mean_motion_ddot": 0,
        "tle_line1": "1 39620U 14012A   25354.08099554 -.00000054  00000+0  00000+0 0  9995",
        "tle_line2": "2 39620  65.4033 320.0211 0014231 312.7815  47.0902  2.13103387 91426"
      },
      "geometry": {
        "type": "Point",
        "coordinates": [
          97.76218444009355,
          55.73230986102827
        ]
      }
    },
    {
      "type": "Feature",
      "properties": {
        "norad_id": 39635,
        "name": "IRNSS-1B",
        "group": "gnss",
        "lat": 12.824281110553697,
        "lon": 39.563645041869925,
        "alt_km": 35789.65680252769,
        "timestamp": "2025-12-20T16:47:36.528609+00:00",
        "meta_object_name": "IRNSS-1B",
        "meta_object_id": "2014-017A",
        "meta_epoch": "2025-12-19T18:39:43.398432",
        "meta_mean_motion": 1.00270773,
        "meta_eccentricity": 0.00187667,
        "meta_inclination": 29.2538,
        "meta_ra_of_asc_node": 243.4836,
        "meta_arg_of_pericenter": 246.8135,
        "meta_mean_anomaly": 293.6282,
        "meta_ephemeris_type": 0,
        "meta_classification_type": "U",
        "meta_norad_cat_id": 39635,
        "meta_element_set_no": 999,
        "meta_rev_at_epoch": 4299,
        "meta_bstar": 0,
        "meta_mean_motion_dot": 1.52e-06,
        "meta_mean_motion_ddot": 0,
        "tle_line1": "1 39635U 14017A   25353.77758563  .00000152  00000+0  00000+0 0  9991",
        "tle_line2": "2 39635  29.2538 243.4836 0018766 246.8135 293.6282  1.00270773 42997"
      },
      "geometry": {
        "type": "Point",
        "coordinates": [
          39.563645041869925,
          12.824281110553697
        ]
      }
    },
    {
      "type": "Feature",
      "properties": {
        "norad_id": 39727,
        "name": "LUCH 5V (SDCM/PRN 141)",
        "group": "gnss",
        "lat": 0.4017891929457168,
        "lon": 76.07374707900122,
        "alt_km": 35803.51549417736,
        "timestamp": "2025-12-20T16:47:36.528621+00:00",
        "meta_object_name": "LUCH 5V (SDCM/PRN 141)",
        "meta_object_id": "2014-023A",
        "meta_epoch": "2025-12-19T17:07:14.606400",
        "meta_mean_motion": 1.00267053,
        "meta_eccentricity": 0.00043201,
        "meta_inclination": 4.6856,
        "meta_ra_of_asc_node": 71.4767,
        "meta_arg_of_pericenter": 213.4503,
        "meta_mean_anomaly": 155.0982,
        "meta_ephemeris_type": 0,
        "meta_classification_type": "U",
        "meta_norad_cat_id": 39727,
        "meta_element_set_no": 999,
        "meta_rev_at_epoch": 4256,
        "meta_bstar": 0,
        "meta_mean_motion_dot": -2.47e-06,
        "meta_mean_motion_ddot": 0,
        "tle_line1": "1 39727U 14023A   25353.71336350 -.00000247  00000+0  00000+0 0  9996",
        "tle_line2": "2 39727   4.6856  71.4767 0004320 213.4503 155.0982  1.00267053 42569"
      },
      "geometry": {
        "type": "Point",
        "coordinates": [
          76.07374707900122,
          0.4017891929457168
        ]
      }
    },
    {
      "type": "Feature",
      "properties": {
        "norad_id": 39741,
        "name": "GPS BIIF-6  (PRN 06)",
        "group": "gnss",
        "lat": 12.88781497838997,
        "lon": 149.76544928133555,
        "alt_km": 20275.364648865438,
        "timestamp": "2025-12-20T16:47:36.528633+00:00",
        "meta_object_name": "GPS BIIF-6  (PRN 06)",
        "meta_object_id": "2014-026A",
        "meta_epoch": "2025-12-18T23:24:45.525888",
        "meta_mean_motion": 2.00561009,
        "meta_eccentricity": 0.00393411,
        "meta_inclination": 56.5812,
        "meta_ra_of_asc_node": 338.5339,
        "meta_arg_of_pericenter": 319.0443,
        "meta_mean_anomaly": 40.6665,
        "meta_ephemeris_type": 0,
        "meta_classification_type": "U",
        "meta_norad_cat_id": 39741,
        "meta_element_set_no": 999,
        "meta_rev_at_epoch": 8492,
        "meta_bstar": 0,
        "meta_mean_motion_dot": -8.1e-07,
        "meta_mean_motion_ddot": 0,
        "tle_line1": "1 39741U 14026A   25352.97552692 -.00000081  00000+0  00000+0 0  9997",
        "tle_line2": "2 39741  56.5812 338.5339 0039341 319.0443  40.6665  2.00561009 84924"
      },
      "geometry": {
        "type": "Point",
        "coordinates": [
          149.76544928133555,
          12.88781497838997
        ]
      }
    },
    {
      "type": "Feature",
      "properties": {
        "norad_id": 40001,
        "name": "COSMOS 2500 (755)",
        "group": "gnss",
        "lat": -15.714243051899492,
        "lon": -47.67881114717447,
        "alt_km": 19142.89149421708,
        "timestamp": "2025-12-20T16:47:36.528644+00:00",
        "meta_object_name": "COSMOS 2500 (755)",
        "meta_object_id": "2014-032A",
        "meta_epoch": "2025-12-20T06:04:27.939360",
        "meta_mean_motion": 2.13106249,
        "meta_eccentricity": 0.000775,
        "meta_inclination": 65.339,
        "meta_ra_of_asc_node": 319.7771,
        "meta_arg_of_pericenter": 219.4032,
        "meta_mean_anomaly": 140.5324,
        "meta_ephemeris_type": 0,
        "meta_classification_type": "U",
        "meta_norad_cat_id": 40001,
        "meta_element_set_no": 999,
        "meta_rev_at_epoch": 8964,
        "meta_bstar": 0,
        "meta_mean_motion_dot": -5.3e-07,
        "meta_mean_motion_ddot": 0,
        "tle_line1": "1 40001U 14032A   25354.25310115 -.00000053  00000+0  00000+0 0  9999",
        "tle_line2": "2 40001  65.3390 319.7771 0007750 219.4032 140.5324  2.13106249 89642"
      },
      "geometry": {
        "type": "Point",
        "coordinates": [
          -47.67881114717447,
          -15.714243051899492
        ]
      }
    },
    {
      "type": "Feature",
      "properties": {
        "norad_id": 40105,
        "name": "GPS BIIF-7  (PRN 09)",
        "group": "gnss",
        "lat": 53.38839298716634,
        "lon": -153.405020568814,
        "alt_km": 20092.882939107327,
        "timestamp": "2025-12-20T16:47:36.528655+00:00",
        "meta_object_name": "GPS BIIF-7  (PRN 09)",
        "meta_object_id": "2014-045A",
        "meta_epoch": "2025-12-18T01:34:21.644256",
        "meta_mean_motion": 2.00572958,
        "meta_eccentricity": 0.00325491,
        "meta_inclination": 55.2322,
        "meta_ra_of_asc_node": 95.6864,
        "meta_arg_of_pericenter": 120.0469,
        "meta_mean_anomaly": 240.2601,
        "meta_ephemeris_type": 0,
        "meta_classification_type": "U",
        "meta_norad_cat_id": 40105,
        "meta_element_set_no": 999,
        "meta_rev_at_epoch": 8244,
        "meta_bstar": 0,
        "meta_mean_motion_dot": -3.8e-07,
        "meta_mean_motion_ddot": 0,
        "tle_line1": "1 40105U 14045A   25352.06552829 -.00000038  00000+0  00000+0 0  9998",
        "tle_line2": "2 40105  55.2322  95.6864 0032549 120.0469 240.2601  2.00572958 82445"
      },
      "geometry": {
        "type": "Point",
        "coordinates": [
          -153.405020568814,
          53.38839298716634
        ]
      }
    }
  ]
}